EARTHCARE               
1 59908U 24101A   24267.82235874  .00036887  00000+0  50791-3 0  9995
2 59908  96.9901  33.3906 0004627 103.8609 256.3162 15.57152005 18327
